{
  "type": "FeatureCollection",
  "features": [
    {
      "type": "Feature",
      "properties": {
        "norad_id": 40367,
        "name": "FENGYUN 2G",
        "group": "weather",
        "lat": NaN,
        "lon": NaN,
        "alt_km": NaN,
        "timestamp": "2025-12-01T02:46:55.349237+00:00",
        "meta": {
          "OBJECT_NAME": "FENGYUN 2G",
          "OBJECT_ID": "2014-090A",
          "EPOCH": "2025-11-30T19:27:15.764832",
          "MEAN_MOTION": 1.00268759,
          "ECCENTRICITY": 0.0002947,
          "INCLINATION": 5.1352,
          "RA_OF_ASC_NODE": 75.2357,
          "ARG_OF_PERICENTER": 192.6945,
          "MEAN_ANOMALY": 193.574,
          "EPHEMERIS_TYPE": 0,
          "CLASSIFICATION_TYPE": "U",
          "NORAD_CAT_ID": 40367,
          "ELEMENT_SET_NO": 999,
          "REV_AT_EPOCH": 4001,
          "BSTAR": 0,
          "MEAN_MOTION_DOT": -2.81e-06,
          "MEAN_MOTION_DDOT": 0
        }
      },
      "geometry": {
        "type": "Point",
        "coordinates": [
          NaN,
          NaN
        ]
      }
    },
    {
      "type": "Feature",
      "properties": {
        "norad_id": 40732,
        "name": "METEOSAT-11 (MSG-4)",
        "group": "weather",
        "lat": NaN,
        "lon": NaN,
        "alt_km": NaN,
        "timestamp": "2025-12-01T02:46:55.349256+00:00",
        "meta": {
          "OBJECT_NAME": "METEOSAT-11 (MSG-4)",
          "OBJECT_ID": "2015-034A",
          "EPOCH": "2025-11-30T17:18:46.619424",
          "MEAN_MOTION": 1.00276951,
          "ECCENTRICITY": 2.88e-05,
          "INCLINATION": 2.7055,
          "RA_OF_ASC_NODE": 72.0309,
          "ARG_OF_PERICENTER": 156.8741,
          "MEAN_ANOMALY": 110.0559,
          "EPHEMERIS_TYPE": 0,
          "CLASSIFICATION_TYPE": "U",
          "NORAD_CAT_ID": 40732,
          "ELEMENT_SET_NO": 999,
          "REV_AT_EPOCH": 522,
          "BSTAR": 0,
          "MEAN_MOTION_DOT": 8.5e-07,
          "MEAN_MOTION_DDOT": 0
        }
      },
      "geometry": {
        "type": "Point",
        "coordinates": [
          NaN,
          NaN
        ]
      }
    },
    {
      "type": "Feature",
      "properties": {
        "norad_id": 41105,
        "name": "ELEKTRO-L 2",
        "group": "weather",
        "lat": NaN,
        "lon": NaN,
        "alt_km": NaN,
        "timestamp": "2025-12-01T02:46:55.349274+00:00",
        "meta": {
          "OBJECT_NAME": "ELEKTRO-L 2",
          "OBJECT_ID": "2015-074A",
          "EPOCH": "2025-11-30T01:47:16.165824",
          "MEAN_MOTION": 1.00270185,
          "ECCENTRICITY": 0.00037887,
          "INCLINATION": 6.1909,
          "RA_OF_ASC_NODE": 72.9771,
          "ARG_OF_PERICENTER": 196.121,
          "MEAN_ANOMALY": 172.4306,
          "EPHEMERIS_TYPE": 0,
          "CLASSIFICATION_TYPE": "U",
          "NORAD_CAT_ID": 41105,
          "ELEMENT_SET_NO": 999,
          "REV_AT_EPOCH": 3651,
          "BSTAR": 0,
          "MEAN_MOTION_DOT": -9.6e-07,
          "MEAN_MOTION_DDOT": 0
        }
      },
      "geometry": {
        "type": "Point",
        "coordinates": [
          NaN,
          NaN
        ]
      }
    },
    {
      "type": "Feature",
      "properties": {
        "norad_id": 41752,
        "name": "INSAT-3DR",
        "group": "weather",
        "lat": NaN,
        "lon": NaN,
        "alt_km": NaN,
        "timestamp": "2025-12-01T02:46:55.349293+00:00",
        "meta": {
          "OBJECT_NAME": "INSAT-3DR",
          "OBJECT_ID": "2016-054A",
          "EPOCH": "2025-11-30T19:19:53.968800",
          "MEAN_MOTION": 1.00269746,
          "ECCENTRICITY": 0.001429,
          "INCLINATION": 0.06,
          "RA_OF_ASC_NODE": 90.4087,
          "ARG_OF_PERICENTER": 178.2176,
          "MEAN_ANOMALY": 165.3311,
          "EPHEMERIS_TYPE": 0,
          "CLASSIFICATION_TYPE": "U",
          "NORAD_CAT_ID": 41752,
          "ELEMENT_SET_NO": 999,
          "REV_AT_EPOCH": 3382,
          "BSTAR": 0,
          "MEAN_MOTION_DOT": -5.5e-07,
          "MEAN_MOTION_DDOT": 0
        }
      },
      "geometry": {
        "type": "Point",
        "coordinates": [
          NaN,
          NaN
        ]
      }
    },
    {
      "type": "Feature",
      "properties": {
        "norad_id": 41836,
        "name": "HIMAWARI-9",
        "group": "weather",
        "lat": NaN,
        "lon": NaN,
        "alt_km": NaN,
        "timestamp": "2025-12-01T02:46:55.349311+00:00",
        "meta": {
          "OBJECT_NAME": "HIMAWARI-9",
          "OBJECT_ID": "2016-064A",
          "EPOCH": "2025-11-30T19:38:59.642304",
          "MEAN_MOTION": 1.00270471,
          "ECCENTRICITY": 0.0001399,
          "INCLINATION": 0.0565,
          "RA_OF_ASC_NODE": 97.6117,
          "ARG_OF_PERICENTER": 157.7907,
          "MEAN_ANOMALY": 250.0629,
          "EPHEMERIS_TYPE": 0,
          "CLASSIFICATION_TYPE": "U",
          "NORAD_CAT_ID": 41836,
          "ELEMENT_SET_NO": 999,
          "REV_AT_EPOCH": 3322,
          "BSTAR": 0,
          "MEAN_MOTION_DOT": -2.53e-06,
          "MEAN_MOTION_DDOT": 0
        }
      },
      "geometry": {
        "type": "Point",
        "coordinates": [
          NaN,
          NaN
        ]
      }
    },
    {
      "type": "Feature",
      "properties": {
        "norad_id": 41866,
        "name": "GOES 16",
        "group": "weather",
        "lat": NaN,
        "lon": NaN,
        "alt_km": NaN,
        "timestamp": "2025-12-01T02:46:55.349329+00:00",
        "meta": {
          "OBJECT_NAME": "GOES 16",
          "OBJECT_ID": "2016-071A",
          "EPOCH": "2025-11-30T15:03:30.047040",
          "MEAN_MOTION": 1.00270797,
          "ECCENTRICITY": 0.0003258,
          "INCLINATION": 0.0594,
          "RA_OF_ASC_NODE": 102.2755,
          "ARG_OF_PERICENTER": 152.4978,
          "MEAN_ANOMALY": 296.1977,
          "EPHEMERIS_TYPE": 0,
          "CLASSIFICATION_TYPE": "U",
          "NORAD_CAT_ID": 41866,
          "ELEMENT_SET_NO": 999,
          "REV_AT_EPOCH": 3311,
          "BSTAR": 0,
          "MEAN_MOTION_DOT": -6.9e-07,
          "MEAN_MOTION_DDOT": 0
        }
      },
      "geometry": {
        "type": "Point",
        "coordinates": [
          NaN,
          NaN
        ]
      }
    },
    {
      "type": "Feature",
      "properties": {
        "norad_id": 41882,
        "name": "FENGYUN 4A",
        "group": "weather",
        "lat": NaN,
        "lon": NaN,
        "alt_km": NaN,
        "timestamp": "2025-12-01T02:46:55.349347+00:00",
        "meta": {
          "OBJECT_NAME": "FENGYUN 4A",
          "OBJECT_ID": "2016-077A",
          "EPOCH": "2025-11-28T14:29:25.325376",
          "MEAN_MOTION": 1.00262544,
          "ECCENTRICITY": 0.0004895,
          "INCLINATION": 1.8103,
          "RA_OF_ASC_NODE": 82.5211,
          "ARG_OF_PERICENTER": 153.8506,
          "MEAN_ANOMALY": 172.3173,
          "EPHEMERIS_TYPE": 0,
          "CLASSIFICATION_TYPE": "U",
          "NORAD_CAT_ID": 41882,
          "ELEMENT_SET_NO": 999,
          "REV_AT_EPOCH": 3291,
          "BSTAR": 0,
          "MEAN_MOTION_DOT": -3.37e-06,
          "MEAN_MOTION_DDOT": 0
        }
      },
      "geometry": {
        "type": "Point",
        "coordinates": [
          NaN,
          NaN
        ]
      }
    },
    {
      "type": "Feature",
      "properties": {
        "norad_id": 41884,
        "name": "CYGFM05",
        "group": "weather",
        "lat": NaN,
        "lon": NaN,
        "alt_km": NaN,
        "timestamp": "2025-12-01T02:46:55.349365+00:00",
        "meta": {
          "OBJECT_NAME": "CYGFM05",
          "OBJECT_ID": "2016-078A",
          "EPOCH": "2025-11-30T19:16:35.357664",
          "MEAN_MOTION": 15.46974865,
          "ECCENTRICITY": 0.0009451,
          "INCLINATION": 34.9577,
          "RA_OF_ASC_NODE": 125.0652,
          "ARG_OF_PERICENTER": 67.1584,
          "MEAN_ANOMALY": 293.0135,
          "EPHEMERIS_TYPE": 0,
          "CLASSIFICATION_TYPE": "U",
          "NORAD_CAT_ID": 41884,
          "ELEMENT_SET_NO": 999,
          "REV_AT_EPOCH": 49791,
          "BSTAR": 0.00039035,
          "MEAN_MOTION_DOT": 0.00020331,
          "MEAN_MOTION_DDOT": 0
        }
      },
      "geometry": {
        "type": "Point",
        "coordinates": [
          NaN,
          NaN
        ]
      }
    }
  ]
}