FENGYUN 2G              
1 40367U 14090A   25334.81059913 -.00000281  00000+0  00000+0 0  9997
2 40367   5.1352  75.2357 0002947 192.6945 193.5740  1.00268759 40017
METEOSAT-11 (MSG-4)     
1 40732U 15034A   25334.72137291  .00000085  00000+0  00000+0 0  9999
2 40732   2.7055  72.0309 0000288 156.8741 110.0559  1.00276951  5229
ELEKTRO-L 2             
1 41105U 15074A   25334.07449266 -.00000096  00000+0  00000+0 0  9997
2 41105   6.1909  72.9771 0003788 196.1210 172.4306  1.00270185 36519
INSAT-3DR               
1 41752U 16054A   25334.80548575 -.00000055  00000+0  00000+0 0  9993
2 41752   0.0600  90.4087 0014290 178.2176 165.3311  1.00269746 33824
HIMAWARI-9              
1 41836U 16064A   25334.81874586 -.00000253  00000+0  00000+0 0  9992
2 41836   0.0565  97.6117 0001399 157.7907 250.0629  1.00270471 33225
GOES 16                 
1 41866U 16071A   25334.62743110 -.00000069  00000+0  00000+0 0  9995
2 41866   0.0594 102.2755 0003258 152.4978 296.1977  1.00270797 33113
FENGYUN 4A              
1 41882U 16077A   25332.60376534 -.00000337  00000+0  00000+0 0  9995
2 41882   1.8103  82.5211 0004895 153.8506 172.3173  1.00262544 32914
CYGFM05                 
1 41884U 16078A   25334.80318701  .00020331  00000+0  39035-3 0  9993
2 41884  34.9577 125.0652 0009451  67.1584 293.0135 15.46974865497911
